{"type": "FeatureCollection", "features": [{"type": "Feature", "properties": {"norad_id": 25590, "name": "COSMOS 2361", "group": "musson", "lat": 10.200672511118118, "lon": -19.54188697778422, "alt_km": 1001.8773773079683, "timestamp": "2025-12-19T08:58:49.608074+00:00", "meta": {"OBJECT_NAME": "COSMOS 2361", "OBJECT_ID": "1998-076A", "EPOCH": "2025-12-18T22:43:29.771904", "MEAN_MOTION": 13.7321829, "ECCENTRICITY": 0.00301329, "INCLINATION": 82.934, "RA_OF_ASC_NODE": 339.4952, "ARG_OF_PERICENTER": 247.6046, "MEAN_ANOMALY": 171.2301, "EPHEMERIS_TYPE": 0, "CLASSIFICATION_TYPE": "U", "NORAD_CAT_ID": 25590, "ELEMENT_SET_NO": 999, "REV_AT_EPOCH": 35196, "BSTAR": 5.4187564e-05, "MEAN_MOTION_DOT": 6.5e-07, "MEAN_MOTION_DDOT": 0}, "tle": {"line1": "1 25590U 98076A   25352.94687236  .00000065  00000+0  54188-4 0  9993", "line2": "2 25590  82.9340 339.4952 0030132 247.6046 171.2301 13.73218290351967"}}, "geometry": {"type": "Point", "coordinates": [-19.54188697778422, 10.200672511118118]}}, {"type": "Feature", "properties": {"norad_id": 26818, "name": "COSMOS 2378", "group": "musson", "lat": 73.95256139513364, "lon": 149.23455937847717, "alt_km": 974.1764912668941, "timestamp": "2025-12-19T08:58:49.608096+00:00", "meta": {"OBJECT_NAME": "COSMOS 2378", "OBJECT_ID": "2001-023A", "EPOCH": "2025-12-18T13:50:24.184320", "MEAN_MOTION": 13.74142495, "ECCENTRICITY": 0.00327551, "INCLINATION": 82.927, "RA_OF_ASC_NODE": 355.3965, "ARG_OF_PERICENTER": 188.4523, "MEAN_ANOMALY": 293.3088, "EPHEMERIS_TYPE": 0, "CLASSIFICATION_TYPE": "U", "NORAD_CAT_ID": 26818, "ELEMENT_SET_NO": 999, "REV_AT_EPOCH": 23003, "BSTAR": 4.2240019e-05, "MEAN_MOTION_DOT": 5.5e-07, "MEAN_MOTION_DDOT": 0}, "tle": {"line1": "1 26818U 01023A   25352.57666880  .00000055  00000+0  42240-4 0  9999", "line2": "2 26818  82.9270 355.3965 0032755 188.4523 293.3088 13.74142495230035"}}, "geometry": {"type": "Point", "coordinates": [149.23455937847717, 73.95256139513364]}}, {"type": "Feature", "properties": {"norad_id": 27436, "name": "COSMOS 2389", "group": "musson", "lat": -24.559659925652674, "lon": -61.168006694709824, "alt_km": 973.014117332742, "timestamp": "2025-12-19T08:58:49.608109+00:00", "meta": {"OBJECT_NAME": "COSMOS 2389", "OBJECT_ID": "2002-026A", "EPOCH": "2025-12-18T22:56:25.002816", "MEAN_MOTION": 13.75155304, "ECCENTRICITY": 0.00474326, "INCLINATION": 82.9508, "RA_OF_ASC_NODE": 302.383, "ARG_OF_PERICENTER": 43.841, "MEAN_ANOMALY": 22.1589, "EPHEMERIS_TYPE": 0, "CLASSIFICATION_TYPE": "U", "NORAD_CAT_ID": 27436, "ELEMENT_SET_NO": 999, "REV_AT_EPOCH": 18234, "BSTAR": 3.2479376e-05, "MEAN_MOTION_DOT": 4.7e-07, "MEAN_MOTION_DDOT": 0}, "tle": {"line1": "1 27436U 02026A   25352.95584494  .00000047  00000+0  32479-4 0  9996", "line2": "2 27436  82.9508 302.3830 0047432  43.8410  22.1589 13.75155304182344"}}, "geometry": {"type": "Point", "coordinates": [-61.168006694709824, -24.559659925652674]}}, {"type": "Feature", "properties": {"norad_id": 27818, "name": "COSMOS 2398", "group": "musson", "lat": -42.456962939458, "lon": 94.31202601596422, "alt_km": 1012.6598702334832, "timestamp": "2025-12-19T08:58:49.608120+00:00", "meta": {"OBJECT_NAME": "COSMOS 2398", "OBJECT_ID": "2003-023A", "EPOCH": "2025-12-18T21:44:54.453984", "MEAN_MOTION": 13.72386281, "ECCENTRICITY": 0.00327386, "INCLINATION": 82.9484, "RA_OF_ASC_NODE": 268.1543, "ARG_OF_PERICENTER": 95.3174, "MEAN_ANOMALY": 336.2638, "EPHEMERIS_TYPE": 0, "CLASSIFICATION_TYPE": "U", "NORAD_CAT_ID": 27818, "ELEMENT_SET_NO": 999, "REV_AT_EPOCH": 12901, "BSTAR": 3.8373866e-05, "MEAN_MOTION_DOT": 5.1e-07, "MEAN_MOTION_DDOT": 0}, "tle": {"line1": "1 27818U 03023A   25352.90618581  .00000051  00000+0  38374-4 0  9993", "line2": "2 27818  82.9484 268.1543 0032738  95.3174 336.2638 13.72386281129019"}}, "geometry": {"type": "Point", "coordinates": [94.31202601596422, -42.456962939458]}}, {"type": "Feature", "properties": {"norad_id": 28380, "name": "COSMOS 2407", "group": "musson", "lat": 27.370854592798594, "lon": 24.312749382268603, "alt_km": 988.4471682963404, "timestamp": "2025-12-19T08:58:49.608131+00:00", "meta": {"OBJECT_NAME": "COSMOS 2407", "OBJECT_ID": "2004-028A", "EPOCH": "2025-12-18T16:52:07.325184", "MEAN_MOTION": 13.76314339, "ECCENTRICITY": 0.00400741, "INCLINATION": 82.96, "RA_OF_ASC_NODE": 208.4777, "ARG_OF_PERICENTER": 38.6121, "MEAN_ANOMALY": 28.9326, "EPHEMERIS_TYPE": 0, "CLASSIFICATION_TYPE": "U", "NORAD_CAT_ID": 28380, "ELEMENT_SET_NO": 999, "REV_AT_EPOCH": 7505, "BSTAR": 6.0956223e-05, "MEAN_MOTION_DOT": 7.5e-07, "MEAN_MOTION_DDOT": 0}, "tle": {"line1": "1 28380U 04028A   25352.70286256  .00000075  00000+0  60956-4 0  9999", "line2": "2 28380  82.9600 208.4777 0040074  38.6121  28.9326 13.76314339 75056"}}, "geometry": {"type": "Point", "coordinates": [24.312749382268603, 27.370854592798594]}}, {"type": "Feature", "properties": {"norad_id": 28521, "name": "COSMOS 2414", "group": "musson", "lat": -28.331306746544776, "lon": 175.8167453176357, "alt_km": 967.757279474522, "timestamp": "2025-12-19T08:58:49.608142+00:00", "meta": {"OBJECT_NAME": "COSMOS 2414", "OBJECT_ID": "2005-002A", "EPOCH": "2025-12-18T22:44:14.200512", "MEAN_MOTION": 13.87903773, "ECCENTRICITY": 0.00412082, "INCLINATION": 82.9488, "RA_OF_ASC_NODE": 179.9657, "ARG_OF_PERICENTER": 122.3921, "MEAN_ANOMALY": 238.1241, "EPHEMERIS_TYPE": 0, "CLASSIFICATION_TYPE": "U", "NORAD_CAT_ID": 28521, "ELEMENT_SET_NO": 999, "REV_AT_EPOCH": 5881, "BSTAR": 5.0386673e-05, "MEAN_MOTION_DOT": 7.6e-07, "MEAN_MOTION_DDOT": 0}, "tle": {"line1": "1 28521U 05002A   25352.94738658  .00000076  00000+0  50387-4 0  9991", "line2": "2 28521  82.9488 179.9657 0041208 122.3921 238.1241 13.87903773 58819"}}, "geometry": {"type": "Point", "coordinates": [175.8167453176357, -28.331306746544776]}}, {"type": "Feature", "properties": {"norad_id": 32052, "name": "COSMOS 2429", "group": "musson", "lat": 17.912952723875378, "lon": 156.13525452485453, "alt_km": 1004.0292458009017, "timestamp": "2025-12-19T08:58:49.608152+00:00", "meta": {"OBJECT_NAME": "COSMOS 2429", "OBJECT_ID": "2007-038A", "EPOCH": "2025-12-18T23:28:00.524640", "MEAN_MOTION": 13.75150038, "ECCENTRICITY": 0.00388944, "INCLINATION": 82.9804, "RA_OF_ASC_NODE": 338.7098, "ARG_OF_PERICENTER": 20.7684, "MEAN_ANOMALY": 339.5042, "EPHEMERIS_TYPE": 0, "CLASSIFICATION_TYPE": "U", "NORAD_CAT_ID": 32052, "ELEMENT_SET_NO": 999, "REV_AT_EPOCH": 91688, "BSTAR": 4.3945415e-05, "MEAN_MOTION_DOT": 5.8e-07, "MEAN_MOTION_DDOT": 0}, "tle": {"line1": "1 32052U 07038A   25352.97778385  .00000058  00000+0  43945-4 0  9992", "line2": "2 32052  82.9804 338.7098 0038894  20.7684 339.5042 13.75150038916883"}}, "geometry": {"type": "Point", "coordinates": [156.13525452485453, 17.912952723875378]}}, {"type": "Feature", "properties": {"norad_id": 35635, "name": "COSMOS 2454", "group": "musson", "lat": 69.1410995607078, "lon": -177.44870729358402, "alt_km": 907.8281061051312, "timestamp": "2025-12-19T08:58:49.608163+00:00", "meta": {"OBJECT_NAME": "COSMOS 2454", "OBJECT_ID": "2009-039A", "EPOCH": "2025-12-18T23:03:52.612704", "MEAN_MOTION": 13.89929381, "ECCENTRICITY": 0.00202783, "INCLINATION": 82.9554, "RA_OF_ASC_NODE": 163.9287, "ARG_OF_PERICENTER": 57.0758, "MEAN_ANOMALY": 107.0563, "EPHEMERIS_TYPE": 0, "CLASSIFICATION_TYPE": "U", "NORAD_CAT_ID": 35635, "ELEMENT_SET_NO": 999, "REV_AT_EPOCH": 83236, "BSTAR": 3.9332347e-05, "MEAN_MOTION_DOT": 6.4e-07, "MEAN_MOTION_DDOT": 0}, "tle": {"line1": "1 35635U 09039A   25352.96102561  .00000064  00000+0  39332-4 0  9993", "line2": "2 35635  82.9554 163.9287 0020278  57.0758 107.0563 13.89929381832361"}}, "geometry": {"type": "Point", "coordinates": [-177.44870729358402, 69.1410995607078]}}, {"type": "Feature", "properties": {"norad_id": 36519, "name": "COSMOS 2463", "group": "musson", "lat": 34.45282267079242, "lon": 26.70012286064025, "alt_km": 1006.2869764926845, "timestamp": "2025-12-19T08:58:49.608173+00:00", "meta": {"OBJECT_NAME": "COSMOS 2463", "OBJECT_ID": "2010-017A", "EPOCH": "2025-12-18T14:06:06.816960", "MEAN_MOTION": 13.71649688, "ECCENTRICITY": 0.00347403, "INCLINATION": 82.9606, "RA_OF_ASC_NODE": 22.4152, "ARG_OF_PERICENTER": 271.2248, "MEAN_ANOMALY": 201.2621, "EPHEMERIS_TYPE": 0, "CLASSIFICATION_TYPE": "U", "NORAD_CAT_ID": 36519, "ELEMENT_SET_NO": 999, "REV_AT_EPOCH": 78317, "BSTAR": 6.2664974e-05, "MEAN_MOTION_DOT": 7.1e-07, "MEAN_MOTION_DDOT": 0}, "tle": {"line1": "1 36519U 10017A   25352.58757890  .00000071  00000+0  62665-4 0  9995", "line2": "2 36519  82.9606  22.4152 0034740 271.2248 201.2621 13.71649688783170"}}, "geometry": {"type": "Point", "coordinates": [26.70012286064025, 34.45282267079242]}}]}